GLOBALSTAR M079 [+]     
1 37188U 10054A   22262.91961001 -.00000088  00000+0  90211-4 0  9991
2 37188  52.0045 307.8108 0000309 122.8449  49.0894 12.62265188550009
GLOBALSTAR M074 [+]     
1 37189U 10054B   22262.86671385 -.00000087  00000+0  92712-4 0  9996
2 37189  52.0020 307.4504 0000471  98.7100  72.7147 12.62262977550607
GLOBALSTAR M076 [+]     
1 37190U 10054C   22262.89337845 -.00000076  00000+0  15559-3 0  9992
2 37190  52.0035 307.4498 0000119  68.6905 103.2986 12.62255760550327
GLOBALSTAR M077 [+]     
1 37191U 10054D   22263.00488466 -.00000085  00000+0  10689-3 0  9992
2 37191  52.0055 263.6769 0000373  72.1220 306.3239 12.62266059551440
GLOBALSTAR M075 [+]     
1 37192U 10054E   22262.66728958 -.00000097  00000+0  36549-4 0  9994
2 37192  51.9975 350.9482 0000391 119.3545  45.2332 12.62267825549527
GLOBALSTAR M073 [+]     
1 37193U 10054F   22263.03489008 -.00000082  00000+0  12205-3 0  9993
2 37193  52.0041 262.8869 0000328  77.9544 317.3976 12.62267574551455
GLOBALSTAR M083 [+]     
1 37739U 11033A   22262.88892029 -.00000096  00000+0  40733-4 0  9993
2 37739  51.9845 213.4266 0000428 101.9598 291.5124 12.62270044520407
GLOBALSTAR M088 [+]     
1 37740U 11033B   22262.85850804 -.00000096  00000+0  45816-4 0  9994
2 37740  51.9718 119.8552 0000554  96.8045 277.5006 12.62265952515942
GLOBALSTAR M091 [+]     
1 37741U 11033C   22263.50928112 -.00000092  00000+0  64083-4 0  9999
2 37741  51.9994  79.6358 0000676 108.4062 283.7147 12.62267639517075
GLOBALSTAR M085 [+]     
1 37742U 11033D   22262.81247823 -.00000100  00000+0  22447-4 0  9994
2 37742  51.9886  33.6818 0000643 108.7767  55.9045 12.62267521517230
GLOBALSTAR M081 [+]     
1 37743U 11033E   22262.83772812 -.00000106  00000+0 -12833-4 0  9993
2 37743  51.9980  35.7743 0000445 112.0641  47.2763 12.62263290517381
GLOBALSTAR M089 [+]     
1 37744U 11033F   22263.55800159 -.00000089  00000+0  85214-4 0  9992
2 37744  51.9958 348.0010 0000540  70.9056 302.7327 12.62267896518575
GLOBALSTAR M084 [+]     
1 38040U 11080A   22262.86107601 -.00000095  00000+0  49975-4 0  9990
2 38040  51.9995 216.8803 0000541  48.0982 336.8044 12.62268551496212
GLOBALSTAR M080 [+]     
1 38041U 11080B   22262.91658402 -.00000103  00000+0  49046-5 0  9997
2 38041  52.0045 217.9669 0000571  37.6254 358.9862 12.62268786496349
GLOBALSTAR M082 [+]     
1 38042U 11080C   22263.51345096 -.00000105  00000+0 -46773-5 0  9994
2 38042  52.0069 171.4905 0000818 104.3839  66.6845 12.62271218497291
GLOBALSTAR M092 [+]     
1 38043U 11080D   22263.29414125 -.00000108  00000+0 -23121-4 0  9994
2 38043  52.0074 262.4817 0000655  60.9812 312.4777 12.62263629495761
GLOBALSTAR M090 [+]     
1 38044U 11080E   22262.51020034 -.00000100  00000+0  21580-4 0  9999
2 38044  51.9879 169.6441 0000493  87.2357  82.7789 12.62266173497152
GLOBALSTAR M086 [+]     
1 38045U 11080F   22262.82528681 -.00000106  00000+0 -11645-4 0  9993
2 38045  51.9889 169.1565 0000607 286.0981 117.2525 12.62265458497107
GLOBALSTAR M097 [+]     
1 39072U 13005A   22262.92166808 -.00000096  00000+0  45286-4 0  9998
2 39072  52.0041  82.3904 0000598 115.9798 244.1131 12.62275190444444
GLOBALSTAR M093 [+]     
1 39073U 13005B   22263.44927492 -.00000090  00000+0  74918-4 0  9999
2 39073  51.9807  75.6884 0000577 124.7181 235.3740 12.62264927444507
GLOBALSTAR M094 [+]     
1 39074U 13005C   22262.65757584 -.00000094  00000+0  52370-4 0  9997
2 39074  51.9986 351.4851 0000462 115.1093 244.9822 12.62268829445899
GLOBALSTAR M096 [+]     
1 39075U 13005D   22262.82925394 -.00000102  00000+0  94382-5 0  9993
2 39075  52.0091  38.6913 0000537 117.6970 242.3951 12.62269849444837
GLOBALSTAR M078 [+]     
1 39076U 13005E   22263.35704677 -.00000155  00000+0 -28567-3 0  9991
2 39076  51.9862 122.9574 0001378 107.7138 252.3879 12.62262330443738
GLOBALSTAR M095 [+]     
1 39077U 13005F   22262.98721589 -.00000096  00000+0  44388-4 0  9994
2 39077  51.9785 121.7757 0001011 115.0976 244.9996 12.62270876443695
GLOBALSTAR FM15 [+]     
1 52888U 22064A   22262.45991308 -.00000128  00000+0  00000+0 0  9998
2 52888  51.9773 268.5358 0009691 187.2849 172.7912 13.37541649 12315
